NORAD_CAT_ID,OBJECT_NAME,OBJECT_TYPE,EPOCH,MEAN_MOTION,ECCENTRICITY,INCLINATION,RA_OF_ASC_NODE,ARG_OF_PERICENTER,MEAN_ANOMALY,BSTAR,MEAN_MOTION_DOT,MEAN_MOTION_DDOT,TLE_LINE0,TLE_LINE1,TLE_LINE2,SEMIMAJOR_AXIS,PERIOD,APOGEE,PERIGEE,DECAYED
51812.0,STARLINK-3610,PAYLOAD,2022-04-05 12:00:00,15.73229141,0.0001151,53.2142,311.268,122.2841,109.7114,-0.00031703,-0.0004493,0.0,0 STARLINK-3610,1 51812U 22017AW  22095.50001157 -.00044930  00000-0 -31703-3 0  9995,2 51812  53.2142 311.2680 0001151 122.2841 109.7114 15.73229141  7347,6727.812,91.531,350.451,348.903,0.0
51812.0,STARLINK-3610,PAYLOAD,2022-04-05 14:00:01,15.73228466,0.0001177,53.2144,310.8556,122.063,222.2361,-0.0004312,-0.00060773,0.0,0 STARLINK-3610,1 51812U 22017AW  22095.58335648 -.00060773  00000-0 -43120-3 0  9997,2 51812  53.2144 310.8556 0001177 122.0630 222.2361 15.73228466  3708,6727.814,91.532,350.471,348.88699999999994,0.0
51812.0,STARLINK-3610,PAYLOAD,2022-04-05 22:00:00,15.73162753,9.73e-05,53.2141,309.2082,112.646,320.5425,-0.00022768,-0.00032398,0.0,0 STARLINK-3610,1 51812U 22017AW  22095.91667824 -.00032398  00000-0 -22768-3 0  9995,2 51812  53.2141 309.2082 0000973 112.6460 320.5425 15.73162753  3709,6728.001,91.535,350.521,349.212,0.0
51812.0,STARLINK-3610,PAYLOAD,2022-04-06 12:00:00,15.73168231,9.65e-05,53.2136,306.3193,131.02100000000002,7.7107,0.00070194,0.00098924,0.0,0 STARLINK-3610,1 51812U 22017AW  22096.50001157  .00098924  00000-0  70194-3 0  9993,2 51812  53.2136 306.3193 0000965 131.0210   7.7107 15.73168231  7503,6727.986,91.535,350.5,349.201,0.0
51812.0,STARLINK-3610,PAYLOAD,2022-04-06 14:00:01,15.73207751,9.88e-05,53.2139,305.907,131.1491,119.8012,0.00032018,0.00044568,0.0,0 STARLINK-3610,1 51812U 22017AW  22096.58334491  .00044568  00000-0  32018-3 0  9999,2 51812  53.2139 305.9070 0000988 131.1491 119.8012 15.73207751  3701,6727.873000000001,91.533,350.403,349.0730000000001,0.0
51812.0,STARLINK-3610,PAYLOAD,2022-04-06 20:00:01,15.73231105,9.37e-05,53.214,304.6716,112.6224,115.0417,-0.0003313,-0.00046917,0.0,0 STARLINK-3610,1 51812U 22017AW  22096.83334491 -.00046917  00000-0 -33130-3 0  9995,2 51812  53.2140 304.6716 0000937 112.6224 115.0417 15.73231105  7552,6727.806,91.531,350.302,349.041,0.0
51812.0,STARLINK-3610,PAYLOAD,2022-04-06 22:00:00,15.73190742,9.73e-05,53.2141,304.2595,110.0435,229.8696,0.00024123,0.00033356,0.0,0 STARLINK-3610,1 51812U 22017AW  22096.91667824  .00033356  00000-0  24123-3 0  9996,2 51812  53.2141 304.2595 0000973 110.0435 229.8696 15.73190742  3707,6727.922,91.534,350.441,349.13199999999995,0.0
51812.0,STARLINK-3610,PAYLOAD,2022-04-07 04:00:00,15.73256631,9.58e-05,53.214,303.0218,107.3133,209.294,-0.00047326,-0.00066672,0.0,0 STARLINK-3610,1 51812U 22017AW  22097.16667824 -.00066672  00000-0 -47326-3 0  9993,2 51812  53.2140 303.0218 0000958 107.3133 209.2940 15.73256631  7610,6727.734,91.53,350.24300000000005,348.954,0.0
51812.0,STARLINK-3610,PAYLOAD,2022-04-07 14:00:01,15.73215779,0.0001347,53.2143,300.9584,111.3005,46.5034,-0.00026578,-0.00037778,0.0,0 STARLINK-3610,1 51812U 22017AW  22097.58334491 -.00037778  00000-0 -26578-3 0  9991,2 51812  53.2143 300.9584 0001347 111.3005  46.5034 15.73215779  3701,6727.85,91.532,350.621,348.809,0.0
51812.0,STARLINK-3610,PAYLOAD,2022-04-07 20:00:01,15.73196021,0.0001299,53.2138,299.7228,101.2133,33.3077,0.00025985,0.00035998,0.0,0 STARLINK-3610,1 51812U 22017AW  22097.83334491  .00035998  00000-0  25985-3 0  9990,2 51812  53.2138 299.7228 0001299 101.2133  33.3077 15.73196021  7715,6727.906999999997,91.533,350.645,348.898,0.0
51812.0,STARLINK-3610,PAYLOAD,2022-04-07 22:00:00,15.73205496,0.0001255,53.2139,299.3109,99.3677,147.3842,0.00020287,0.00027953,0.0,0 STARLINK-3610,1 51812U 22017AW  22097.91667824  .00027953  00000-0  20287-3 0  9990,2 51812  53.2139 299.3109 0001255  99.3677 147.3842 15.73205496  3687,6727.88,91.533,350.589,348.9,0.0
51812.0,STARLINK-3610,PAYLOAD,2022-04-08 14:00:03,15.73276051,0.0001134,53.2137,296.0095,114.2329,310.5657,-0.00047458,-0.00066912,0.0,0 STARLINK-3610,1 51812U 22017AW  22098.58336806 -.00066912  00000-0 -47458-3 0  9996,2 51812  53.2137 296.0095 0001134 114.2329 310.5657 15.73276051  3706,6727.678000000001,91.529,350.306,348.78,0.0
51812.0,STARLINK-3610,PAYLOAD,2022-04-08 20:00:01,15.73228901,0.0001083,53.2137,294.7742,102.607,298.7948,-0.0006877,-0.00096154,0.0,0 STARLINK-3610,1 51812U 22017AW  22098.83334491 -.00096154  00000-0 -68770-3 0  9993,2 51812  53.2137 294.7742 0001083 102.6070 298.7948 15.73228901  7870,6727.813,91.531,350.406,348.949,0.0
51812.0,STARLINK-3610,PAYLOAD,2022-04-08 22:00:00,15.73193258,0.0001071,53.214,294.362,98.7237,54.9218,-0.00034341,-0.00048522,0.0,0 STARLINK-3610,1 51812U 22017AW  22098.91667824 -.00048522  00000-0 -34341-3 0  9994,2 51812  53.2140 294.3620 0001071  98.7237  54.9218 15.73193258  3674,6727.9140000000025,91.534,350.5,349.059,0.0
51812.0,STARLINK-3610,PAYLOAD,2022-04-09 04:00:00,15.73187331,0.0001103,53.2137,293.124,99.041,31.2875,-0.00043993,-0.00061874,0.0,0 STARLINK-3610,1 51812U 22017AW  22099.16667824 -.00061874  00000-0 -43993-3 0  9990,2 51812  53.2137 293.1240 0001103  99.0410  31.2875 15.73187331  7922,6727.931,91.534,350.538,349.05400000000014,0.0
51812.0,STARLINK-3610,PAYLOAD,2022-04-09 14:00:01,15.73130024,0.000139,53.2139,291.0612,103.9147,227.5014,0.00035593,0.00049478,0.0,0 STARLINK-3610,1 51812U 22017AW  22099.58334491  .00049478  00000-0  35593-3 0  9998,2 51812  53.2139 291.0612 0001390 103.9147 227.5014 15.73130024  3708,6728.095,91.537,350.895,349.024,0.0
51812.0,STARLINK-3610,PAYLOAD,2022-04-09 20:00:01,15.73167177,0.0001343,53.2135,289.8257,93.1564,214.9249,0.00049961,0.00069984,0.0,0 STARLINK-3610,1 51812U 22017AW  22099.83334491  .00069984  00000-0  49961-3 0  9994,2 51812  53.2135 289.8257 0001343  93.1564 214.9249 15.73167177  8035,6727.989000000001,91.535,350.75699999999995,348.95,0.0
51812.0,STARLINK-3610,PAYLOAD,2022-04-09 22:00:00,15.73162416,0.0001296999999999,53.2135,289.4137,92.2455,328.0645,0.0007838999999999,0.00110676,0.0,0 STARLINK-3610,1 51812U 22017AW  22099.91667824  .00110676  00000-0  78390-3 0  9995,2 51812  53.2135 289.4137 0001297  92.2455 328.0645 15.73162416  3702,6728.002,91.535,350.74,348.995,0.0
51812.0,STARLINK-3610,PAYLOAD,2022-04-10 14:00:01,15.73306067,0.0001335,53.2133,286.1126,104.6887,133.5241,-0.00067952,-0.00095344,0.0,0 STARLINK-3610,1 51812U 22017AW  22100.58334491 -.00095344  00000-0 -67952-3 0  9990,2 51812  53.2133 286.1126 0001335 104.6887 133.5241 15.73306067  3705,6727.593000000003,91.527,350.356,348.56,0.0
51812.0,STARLINK-3610,PAYLOAD,2022-04-10 20:00:01,15.73281068,0.0001284,53.2132,284.877,90.8202,124.1873,-0.00058766,-0.00082574,0.0,0 STARLINK-3610,1 51812U 22017AW  22100.83334491 -.00082574  00000-0 -58766-3 0  9992,2 51812  53.2132 284.8770 0001284  90.8202 124.1873 15.73281068  8181,6727.6640000000025,91.528,350.39300000000014,348.665,0.0
51812.0,STARLINK-3610,PAYLOAD,2022-04-10 22:00:00,15.73248181,0.0001242,53.2133,284.4648,89.2877,237.9799,-0.00027205,-0.00038704,0.0,0 STARLINK-3610,1 51812U 22017AW  22100.91667824 -.00038704  00000-0 -27205-3 0  9990,2 51812  53.2133 284.4648 0001242  89.2877 237.9799 15.73248181  3719,6727.7580000000025,91.53,350.458,348.787,0.0
51812.0,STARLINK-3610,PAYLOAD,2022-04-11 12:00:00,15.73234339,0.0001258,53.2139,281.5763,96.5835,296.2996,-0.00022349,-0.00031912,0.0,0 STARLINK-3610,1 51812U 22017AW  22101.50001157 -.00031912  00000-0 -22349-3 0  9995,2 51812  53.2139 281.5763 0001258  96.5835 296.2996 15.73234339  8298,6727.797,91.531,350.509,348.816,0.0
51812.0,STARLINK-3610,PAYLOAD,2022-04-11 14:00:01,15.73244623,0.0001257,53.2142,281.1614,95.4892,49.6317,-0.0004381,-0.00061771,0.0,0 STARLINK-3610,1 51812U 22017AW  22101.58334491 -.00061771  00000-0 -43810-3 0  9995,2 51812  53.2142 281.1614 0001257  95.4892  49.6317 15.73244623  3708,6727.768,91.531,350.47900000000016,348.787,0.0
51812.0,STARLINK-3610,PAYLOAD,2022-04-11 22:00:00,15.73198709,0.0001195,53.2128,279.5159,81.7172,152.351,2.0125e-06,-3.37e-06,0.0,0 STARLINK-3610,1 51812U 22017AW  22101.91667824 -.00000337  00000-0  20125-5 0  9997,2 51812  53.2128 279.5159 0001195  81.7172 152.3510 15.73198709  3695,6727.899,91.533,350.5680000000001,348.96,0.0
51812.0,STARLINK-3610,PAYLOAD,2022-04-12 14:00:01,15.7317324,0.0001046,53.2127,276.215,95.1354,316.7515,6.692800000000001e-05,8.772e-05,0.0,0 STARLINK-3610,1 51812U 22017AW  22102.58334491  .00008772  00000-0  66928-4 0  9992,2 51812  53.2127 276.2150 0001046  95.1354 316.7515 15.73173240  3699,6727.971,91.535,350.54,349.1330000000001,0.0
51812.0,STARLINK-3610,PAYLOAD,2022-04-12 20:00:01,15.73157765,0.0001038,53.2127,274.9794,81.7403,306.8164,0.0004931,0.00069028,0.0,0 STARLINK-3610,1 51812U 22017AW  22102.83334491  .00069028  00000-0  49310-3 0  9996,2 51812  53.2127 274.9794 0001038  81.7403 306.8164 15.73157765  8504,6728.016,91.536,350.579,349.182,0.0
51812.0,STARLINK-3610,PAYLOAD,2022-04-12 22:00:00,15.731539800000002,9.95e-05,53.2127,274.5672,78.3524,62.4313,0.00070567,0.00099398,0.0,0 STARLINK-3610,1 51812U 22017AW  22102.91667824  .00099398  00000-0  70567-3 0  9995,2 51812  53.2127 274.5672 0000995  78.3524  62.4313 15.73153980  3682,6728.026,91.536,350.561,349.222,0.0
51812.0,STARLINK-3610,PAYLOAD,2022-04-13 12:00:00,15.73205814,0.0001202,53.2177,271.6596,85.8482,120.402,-9.604e-06,-1.968e-05,0.0,0 STARLINK-3610,1 51812U 22017AW  22103.50001157 -.00001968  00000-0 -96040-5 0  9996,2 51812  53.2177 271.6596 0001202  85.8482 120.4020 15.73205814  8609,6727.879,91.533,350.552,348.935,0.0
51812.0,STARLINK-3610,PAYLOAD,2022-04-13 14:00:03,15.73206693,0.0001156,53.2177,271.2477,87.7888,230.8258,-3.0606e-05,-4.914e-05,0.0,0 STARLINK-3610,1 51812U 22017AW  22103.58336806 -.00004914  00000-0 -30606-4 0  9995,2 51812  53.2177 271.2477 0001156  87.7888 230.8258 15.73206693  3714,6727.876,91.533,350.519,348.963,0.0
